{
"type": "FeatureCollection",
"name": "flood_points_koramangala",
"crs": { "type": "name", "properties": { "name": "urn:ogc:def:crs:OGC:1.3:CRS84" } },
"features": [
{ "type": "Feature", "properties": { "id": "flood_prone_locations.24", "Name": "Koramangala Slum", "description": null, "timestamp": null, "begin": null, "end": null, "altitudeMode": null, "tessellate": -1, "extrude": 0, "visibility": -1, "drawOrder": null, "icon": null, "OBJECTID": 24.0, "elevation": 899 }, "geometry": { "type": "Point", "coordinates": [ 77.62797420604042, 12.924817268901601 ] } },
{ "type": "Feature", "properties": { "id": "flood_prone_locations.28", "Name": "NGV to HSR Layout", "description": null, "timestamp": null, "begin": null, "end": null, "altitudeMode": null, "tessellate": -1, "extrude": 0, "visibility": -1, "drawOrder": null, "icon": null, "OBJECTID": 28.0, "elevation": 884 }, "geometry": { "type": "Point", "coordinates": [ 77.620147289361697, 12.948554000166697 ] } }
]
}
